{"fetched_at":"2026-07-15T06:36:34.295Z","source":"https://celestrak.org/NORAD/elements/gp.php?NAME=WORLDVIEW&FORMAT=JSON","constellation":"worldview","records":[{"OBJECT_NAME":"WORLDVIEW-1 (WV-1)","OBJECT_ID":"2007-041A","EPOCH":"2026-07-14T22:14:43.606176","CLASSIFICATION_TYPE":"U","MEAN_MOTION":15.24556733,"ECCENTRICITY":0.00014998,"INCLINATION":97.3905,"RA_OF_ASC_NODE":315.2811,"ARG_OF_PERICENTER":207.4916,"MEAN_ANOMALY":152.6243,"EPHEMERIS_TYPE":0,"NORAD_CAT_ID":32060,"ELEMENT_SET_NO":999,"REV_AT_EPOCH":4710,"BSTAR":0.00013474844,"MEAN_MOTION_DOT":0.00003247,"MEAN_MOTION_DDOT":0},{"OBJECT_NAME":"WORLDVIEW-2 (WV-2)","OBJECT_ID":"2009-055A","EPOCH":"2026-07-14T22:17:07.813824","CLASSIFICATION_TYPE":"U","MEAN_MOTION":14.37906848,"ECCENTRICITY":0.0005305,"INCLINATION":98.4757,"RA_OF_ASC_NODE":269.0005,"ARG_OF_PERICENTER":130.4608,"MEAN_ANOMALY":229.7042,"EPHEMERIS_TYPE":0,"NORAD_CAT_ID":35946,"ELEMENT_SET_NO":999,"REV_AT_EPOCH":87963,"BSTAR":0.000026696699,"MEAN_MOTION_DOT":3.7e-7,"MEAN_MOTION_DDOT":0},{"OBJECT_NAME":"WORLDVIEW-3 (WV-3)","OBJECT_ID":"2014-048A","EPOCH":"2026-07-14T22:15:48.861504","CLASSIFICATION_TYPE":"U","MEAN_MOTION":14.85063994,"ECCENTRICITY":0.00012807,"INCLINATION":97.8557,"RA_OF_ASC_NODE":270.3766,"ARG_OF_PERICENTER":156.6966,"MEAN_ANOMALY":203.4307,"EPHEMERIS_TYPE":0,"NORAD_CAT_ID":40115,"ELEMENT_SET_NO":999,"REV_AT_EPOCH":64602,"BSTAR":0.000053945855,"MEAN_MOTION_DOT":0.00000407,"MEAN_MOTION_DDOT":0}]}
